[{"OBJECT_NAME":"STARLINK-2036","OBJECT_ID":"2021-012AJ","EPOCH":"2026-03-10T00:00:02.999808","MEAN_MOTION":15.43145644,"ECCENTRICITY":0.00019859,"INCLINATION":53.161,"RA_OF_ASC_NODE":63.0833,"ARG_OF_PERICENTER":97.7885,"MEAN_ANOMALY":132.9108,"EPHEMERIS_TYPE":0,"CLASSIFICATION_TYPE":"U","NORAD_CAT_ID":47652,"ELEMENT_SET_NO":999,"REV_AT_EPOCH":585,"BSTAR":0.0033754047,"MEAN_MOTION_DOT":0.00154499,"MEAN_MOTION_DDOT":0},{"OBJECT_NAME":"POLYTECH UNIVERSE-4","OBJECT_ID":"2024-199N","EPOCH":"2026-03-09T22:39:35.452512","MEAN_MOTION":15.41920317,"ECCENTRICITY":0.00080129,"INCLINATION":97.316,"RA_OF_ASC_NODE":301.6563,"ARG_OF_PERICENTER":282.4901,"MEAN_ANOMALY":77.5449,"EPHEMERIS_TYPE":0,"CLASSIFICATION_TYPE":"U","NORAD_CAT_ID":61747,"ELEMENT_SET_NO":999,"REV_AT_EPOCH":12205,"BSTAR":0.00052704604,"MEAN_MOTION_DOT":0.0002238,"MEAN_MOTION_DDOT":0}]
